OBJECT_NAME,OBJECT_ID,EPOCH,MEAN_MOTION,ECCENTRICITY,INCLINATION,RA_OF_ASC_NODE,ARG_OF_PERICENTER,MEAN_ANOMALY,EPHEMERIS_TYPE,CLASSIFICATION_TYPE,NORAD_CAT_ID,ELEMENT_SET_NO,REV_AT_EPOCH,BSTAR,MEAN_MOTION_DOT,MEAN_MOTION_DDOT
GAOFEN-11 01,2018-063A,2026-07-11T22:31:13.385568,15.56001813,.00027937,97.1288,259.7566,213.5831,146.5248,0,U,43585,999,44419,.14342656E-3,.9877E-4,0
ICESAT-2,2018-070A,2026-07-11T21:44:56.016096,15.28314102,.0005698,92.0090,297.6585,72.6632,287.5240,0,U,43613,999,43623,.2159363E-3,.5956E-4,0
HYSIS,2018-096A,2026-07-11T23:29:38.351904,14.78665998,.00018696,97.9835,259.5311,84.5651,275.5774,0,U,43719,999,41108,.538835E-4,.343E-5,0
KAZSTSAT,2018-099AB,2026-07-11T21:56:56.649984,14.99950890,.00075555,97.4318,223.7275,353.9164,6.1967,0,U,43783,999,41501,.70912126E-4,.825E-5,0
SAUDISAT 5A,2018-102A,2026-07-11T23:33:34.857216,15.28300496,.00107039,97.3058,254.0865,53.7924,306.4304,0,U,43831,999,41946,.12570025E-3,.3396E-4,0
SAUDISAT 5B,2018-102C,2026-07-11T22:20:35.983392,15.28544099,.00114864,97.3168,257.1513,55.3133,304.9188,0,U,43833,999,41957,.11556512E-3,.3141E-4,0
GAOFEN-10R,2019-066A,2026-07-11T23:35:13.151040,14.83053098,.00070001,98.0514,146.7438,61.3262,298.8654,0,U,44622,999,36605,.84696456E-4,.634E-5,0
CARTOSAT-3,2019-081A,2026-07-11T23:42:22.961664,15.19306488,.00132919,97.4299,254.4540,71.1756,289.0919,0,U,44804,999,36723,.61759912E-4,.1238E-4,0
GAOFEN-12 01,2019-082A,2026-07-11T22:50:44.172960,14.80478014,.00011378,97.8107,198.6783,52.4611,307.6705,0,U,44819,999,35775,.32999735E-4,.202E-5,0
CSG-1,2019-092A,2026-07-12T00:43:35.198400,14.82155271,.0001474,97.8894,16.2736,90.0648,270.0734,0,U,44873,999,35515,.34622E-4,.223E-5,0
NEMO-HD,2020-061F,2026-07-11T22:31:00.236352,15.45092579,.00010323,97.1913,254.6469,87.0001,273.1366,0,U,46277,999,32580,.15294333E-3,.7145E-4,0
SENTINEL-6A,2020-086A,2026-07-11T20:03:11.931264,12.80930061,.00078113,66.0413,83.8588,269.9235,90.0885,0,U,46984,999,26348,-.42357781E-4,-.71E-6,0
CAS500-1,2021-022A,2026-07-11T22:40:24.157920,15.20160060,.00048538,97.3876,87.6936,179.2752,180.8492,0,U,47932,999,29452,.16092394E-3,.3415E-4,0
GAOFEN-12 02,2021-026A,2026-07-11T23:10:30.040608,14.80314666,.00056224,97.9932,191.0461,140.6702,219.4919,0,U,48079,999,28542,.31315228E-4,.186E-5,0
PLEIADES NEO 3,2021-034A,2026-07-11T23:16:50.316384,14.81678298,.00013718,97.8942,267.3799,94.8287,265.3083,0,U,48268,999,28132,.10599128E-3,.782E-5,0
PLEIADES NEO 4,2021-073E,2026-07-11T22:28:12.436320,14.81672809,.00013388,97.8940,267.3427,92.7533,267.3833,0,U,49070,999,26503,.1168552E-5,-.43E-6,0
LANDSAT 9,2021-088A,2026-07-10T19:39:17.009568,14.57104464,.00015127,98.2341,261.7009,185.5660,174.5522,0,U,49260,999,25444,.43074943E-4,.149E-5,0
CSG-2,2022-008A,2026-07-11T22:17:42.209664,14.82149240,.000152,97.8893,16.1686,85.8798,274.2589,0,U,51444,999,24025,.71375656E-4,.516E-5,0
GAOFEN-12 03,2022-069A,2026-07-11T22:22:21.806112,14.80074857,.00025107,97.8254,80.1759,76.4837,283.6654,0,U,52912,999,21827,.14000058E-3,.101E-4,0
SWOT,2022-173A,2026-07-11T22:13:07.152672,14.00172181,.00002839,77.6107,1.9117,77.7240,282.3944,0,U,54754,999,18261,.50214493E-4,.72E-6,0
GAOFEN-12 04,2023-123A,2026-07-11T22:49:47.166240,14.79771775,.00036625,97.9104,110.6000,57.1844,302.9720,0,U,57654,999,15629,.66684721E-4,.45E-5,0
PARS 1,2024-039Q,2026-07-11T23:24:06.147360,15.46243465,.00101826,97.4830,174.6864,37.3063,322.8891,0,U,59065,999,13247,.15247023E-3,.7418E-4,0
RESURS-P 4,2024-061A,2026-07-11T22:47:21.460416,15.32268425,.0003207,97.2758,140.4203,94.2056,265.9553,0,U,59371,999,12755,.62848142E-4,.1882E-4,0
LEGION 1,2024-081A,2026-07-11T21:36:56.808864,15.16830593,.00076922,97.5015,270.4953,283.4197,76.6179,0,U,59625,999,12128,.1182248E-3,.2258E-4,0
LEGION 2,2024-081B,2026-07-11T22:20:37.936896,15.16809597,.00100567,97.5014,270.6221,246.2581,113.7598,0,U,59626,999,12129,.10312077E-3,.1961E-4,0
ALOS-4 (DAICHI-4),2024-123A,2026-07-11T21:53:29.747040,14.79476168,.00016013,97.9220,289.7332,97.6239,262.5154,0,U,60182,999,10953,.11091307E-3,.777E-5,0
LEGION 3,2024-146A,2026-07-11T15:29:39.703488,15.15641977,.0008526,45.0012,259.4148,315.1930,44.8259,0,U,60452,999,10573,.12016822E-3,.2061E-4,0
LEGION 4,2024-146B,2026-07-11T21:49:01.373088,15.15665630,.00089387,45.0028,349.8695,92.8389,267.3513,0,U,60453,999,10462,.1624891E-3,.2882E-4,0
SENTINEL-2C,2024-157A,2026-07-11T18:54:37.788768,14.30815045,.00009505,98.5685,267.2210,100.0573,260.0717,0,U,60989,999,9650,.27399863E-4,.28E-6,0
IONOSFERA-M 1,2024-199A,2026-07-11T22:45:48.656448,14.22758673,.00021953,98.7140,65.8556,77.0868,283.0555,0,U,61735,999,13122,.34190886E-4,.33E-6,0
