GAOFEN-11 01            
1 43585U 18063A   26192.93834937  .00009877  00000+0  14343-3 0  9997
2 43585  97.1288 259.7566 0002793 213.5831 146.5248 15.56001813444198
ICESAT-2                
1 43613U 18070A   26192.90620389  .00005956  00000+0  21594-3 0  9998
2 43613  92.0090 297.6585 0005698  72.6632 287.5240 15.28314102436238
HYSIS                   
1 43719U 18096A   26192.97891611  .00000343  00000+0  53883-4 0  9990
2 43719  97.9835 259.5311 0001869  84.5651 275.5774 14.78665998411080
KAZSTSAT                
1 43783U 18099AB  26192.91454456  .00000825  00000+0  70912-4 0  9997
2 43783  97.4318 223.7275 0007555 353.9164   6.1967 14.99950890415014
SAUDISAT 5A             
1 43831U 18102A   26192.98165344  .00003396  00000+0  12570-3 0  9999
2 43831  97.3058 254.0865 0010703  53.7924 306.4304 15.28300496419466
SAUDISAT 5B             
1 43833U 18102C   26192.93097203  .00003141  00000+0  11557-3 0  9996
2 43833  97.3168 257.1513 0011486  55.3133 304.9188 15.28544099419577
GAOFEN-10R              
1 44622U 19066A   26192.98279110  .00000634  00000+0  84696-4 0  9996
2 44622  98.0514 146.7438 0007000  61.3262 298.8654 14.83053098366050
CARTOSAT-3              
1 44804U 19081A   26192.98776576  .00001238  00000+0  61760-4 0  9991
2 44804  97.4299 254.4540 0013291  71.1756 289.0919 15.19306488367233
GAOFEN-12 01            
1 44819U 19082A   26192.95190015  .00000202  00000+0  33000-4 0  9999
2 44819  97.8107 198.6783 0001137  52.4611 307.6705 14.80478014357755
CSG-1                   
1 44873U 19092A   26193.03026850  .00000223  00000+0  34622-4 0  9999
2 44873  97.8894  16.2736 0001474  90.0648 270.0734 14.82155271355159
NEMO-HD                 
1 46277U 20061F   26192.93819718  .00007145  00000+0  15294-3 0  9991
2 46277  97.1913 254.6469 0001032  87.0001 273.1366 15.45092579325809
SENTINEL-6A             
1 46984U 20086A   26192.83555476 -.00000071  00000+0 -42358-4 0  9995
2 46984  66.0413  83.8588 0007811 269.9235  90.0885 12.80930061263489
CAS500-1                
1 47932U 21022A   26192.94472405  .00003415  00000+0  16092-3 0  9990
2 47932  97.3876  87.6936 0004853 179.2752 180.8492 15.20160060294524
GAOFEN-12 02            
1 48079U 21026A   26192.96562547  .00000186  00000+0  31315-4 0  9994
2 48079  97.9932 191.0461 0005622 140.6702 219.4919 14.80314666285421
PLEIADES NEO 3          
1 48268U 21034A   26192.97002681  .00000782  00000+0  10599-3 0  9994
2 48268  97.8942 267.3799 0001371  94.8287 265.3083 14.81678298281329
PLEIADES NEO 4          
1 49070U 21073E   26192.93625505 -.00000043  00000+0  11686-5 0  9992
2 49070  97.8940 267.3427 0001338  92.7533 267.3833 14.81672809265038
LANDSAT 9               
1 49260U 21088A   26191.81894687  .00000149  00000+0  43075-4 0  9996
2 49260  98.2341 261.7009 0001512 185.5660 174.5522 14.57104464254446
CSG-2                   
1 51444U 22008A   26192.92896076  .00000516  00000+0  71376-4 0  9996
2 51444  97.8893  16.1686 0001520  85.8798 274.2589 14.82149240240250
GAOFEN-12 03            
1 52912U 22069A   26192.93219683  .00001010  00000+0  14000-3 0  9998
2 52912  97.8254  80.1759 0002510  76.4837 283.6654 14.80074857218277
SWOT                    
1 54754U 22173A   26192.92577723  .00000072  00000+0  50214-4 0  9996
2 54754  77.6107   1.9117 0000283  77.7240 282.3944 14.00172181182619
GAOFEN-12 04            
1 57654U 23123A   26192.95124035  .00000450  00000+0  66685-4 0  9990
2 57654  97.9104 110.6000 0003662  57.1844 302.9720 14.79771775156294
PARS 1                  
1 59065U 24039Q   26192.97507115  .00007418  00000+0  15247-3 0  9999
2 59065  97.4830 174.6864 0010182  37.3063 322.8891 15.46243465132478
RESURS-P 4              
1 59371U 24061A   26192.94955394  .00001882  00000+0  62848-4 0  9996
2 59371  97.2758 140.4203 0003207  94.2056 265.9553 15.32268425127550
LEGION 1                
1 59625U 24081A   26192.90065751  .00002258  00000+0  11822-3 0  9998
2 59625  97.5015 270.4953 0007692 283.4197  76.6179 15.16830593121285
LEGION 2                
1 59626U 24081B   26192.93099464  .00001961  00000+0  10312-3 0  9993
2 59626  97.5014 270.6221 0010056 246.2581 113.7598 15.16809597121296
ALOS-4 (DAICHI-4)       
1 60182U 24123A   26192.91214985  .00000777  00000+0  11091-3 0  9993
2 60182  97.9220 289.7332 0001601  97.6239 262.5154 14.79476168109532
LEGION 3                
1 60452U 24146A   26192.64559842  .00002061  00000+0  12017-3 0  9999
2 60452  45.0012 259.4148 0008526 315.1930  44.8259 15.15641977105731
LEGION 4                
1 60453U 24146B   26192.90904367  .00002882  00000+0  16249-3 0  9997
2 60453  45.0028 349.8695 0008938  92.8389 267.3513 15.15665630104628
SENTINEL-2C             
1 60989U 24157A   26192.78793737  .00000028  00000+0  27400-4 0  9998
2 60989  98.5685 267.2210 0000950 100.0573 260.0717 14.30815045 96509
IONOSFERA-M 1           
1 61735U 24199A   26192.94847982  .00000033  00000+0  34191-4 0  9995
2 61735  98.7140  65.8556 0002195  77.0868 283.0555 14.22758673131223
